STARLINK-1354
1 25562C 20025AH  21325.10294036 -.00000439  00000-0 -29423-4 0  3254
2 25562  53.0530 292.7713 0001939  67.7608 341.9358 15.06393498    19
